[{"OBJECT_NAME":"STARLINK-4346","OBJECT_ID":"2022-077AG","EPOCH":"2026-03-09T23:20:05.829216","MEAN_MOTION":15.20483722,"ECCENTRICITY":0.00045407,"INCLINATION":97.6378,"RA_OF_ASC_NODE":257.0949,"ARG_OF_PERICENTER":212.0804,"MEAN_ANOMALY":148.0155,"EPHEMERIS_TYPE":0,"CLASSIFICATION_TYPE":"U","NORAD_CAT_ID":53073,"ELEMENT_SET_NO":999,"REV_AT_EPOCH":20134,"BSTAR":0.00030178555,"MEAN_MOTION_DOT":6.523e-5,"MEAN_MOTION_DDOT":0},{"OBJECT_NAME":"FLOCK 4H-12","OBJECT_ID":"2025-276BB","EPOCH":"2026-03-09T17:04:48.725184","MEAN_MOTION":15.1924028,"ECCENTRICITY":0.00012108,"INCLINATION":97.4257,"RA_OF_ASC_NODE":144.0272,"ARG_OF_PERICENTER":355.045,"MEAN_ANOMALY":5.0772,"EPHEMERIS_TYPE":0,"CLASSIFICATION_TYPE":"U","NORAD_CAT_ID":66715,"ELEMENT_SET_NO":999,"REV_AT_EPOCH":1563,"BSTAR":0.00034709281,"MEAN_MOTION_DOT":7.248e-5,"MEAN_MOTION_DDOT":0}]
